CCSDS_OMM_VERS = 2.0
CREATION_DATE  = 
ORIGINATOR     = 

OBJECT_NAME    = SL-14 R/B
OBJECT_ID      = 1986-046B
CENTER_NAME    = EARTH
REF_FRAME      = TEME
TIME_SYSTEM    = UTC
MEAN_ELEMENT_THEORY = SGP/SGP4

EPOCH          = 2026-02-27T02:20:53.158272
MEAN_MOTION    = 14.85578294
ECCENTRICITY   = .0021545
INCLINATION    = 82.4787
RA_OF_ASC_NODE = 90.1928
ARG_OF_PERICENTER = 262.5384
MEAN_ANOMALY   = 97.3384

EPHEMERIS_TYPE = 0
CLASSIFICATION_TYPE = U
NORAD_CAT_ID   = 16792
ELEMENT_SET_NO = 999
REV_AT_EPOCH   = 12483
BSTAR          = .49344E-4
MEAN_MOTION_DOT = .452E-5
MEAN_MOTION_DDOT = 0

CCSDS_OMM_VERS = 2.0
CREATION_DATE  = 
ORIGINATOR     = 

OBJECT_NAME    = SL-14 R/B
OBJECT_ID      = 1986-055B
CENTER_NAME    = EARTH
REF_FRAME      = TEME
TIME_SYSTEM    = UTC
MEAN_ELEMENT_THEORY = SGP/SGP4

EPOCH          = 2026-02-27T03:41:43.094400
MEAN_MOTION    = 14.85631168
ECCENTRICITY   = .001911
INCLINATION    = 82.5221
RA_OF_ASC_NODE = 136.5756
ARG_OF_PERICENTER = 11.8474
MEAN_ANOMALY   = 11.1144

EPHEMERIS_TYPE = 0
CLASSIFICATION_TYPE = U
NORAD_CAT_ID   = 16882
ELEMENT_SET_NO = 999
REV_AT_EPOCH   = 11780
BSTAR          = .51254E-4
MEAN_MOTION_DOT = .469E-5
MEAN_MOTION_DDOT = 0

CCSDS_OMM_VERS = 2.0
CREATION_DATE  = 
ORIGINATOR     = 

OBJECT_NAME    = AJISAI (EGS)
OBJECT_ID      = 1986-061A
CENTER_NAME    = EARTH
REF_FRAME      = TEME
TIME_SYSTEM    = UTC
MEAN_ELEMENT_THEORY = SGP/SGP4

EPOCH          = 2026-02-27T04:30:33.055776
MEAN_MOTION    = 12.44515451
ECCENTRICITY   = .0011245
INCLINATION    = 50.0083
RA_OF_ASC_NODE = 125.6418
ARG_OF_PERICENTER = 259.9786
MEAN_ANOMALY   = 136.1736

EPHEMERIS_TYPE = 0
CLASSIFICATION_TYPE = U
NORAD_CAT_ID   = 16908
ELEMENT_SET_NO = 999
REV_AT_EPOCH   = 46669
BSTAR          = -.66319E-4
MEAN_MOTION_DOT = -.107E-5
MEAN_MOTION_DDOT = 0

CCSDS_OMM_VERS = 2.0
CREATION_DATE  = 
ORIGINATOR     = 

OBJECT_NAME    = COSMOS 1812
OBJECT_ID      = 1987-003A
CENTER_NAME    = EARTH
REF_FRAME      = TEME
TIME_SYSTEM    = UTC
MEAN_ELEMENT_THEORY = SGP/SGP4

EPOCH          = 2026-02-27T05:25:36.183072
MEAN_MOTION    = 16.12709895
ECCENTRICITY   = .0005643
INCLINATION    = 82.4736
RA_OF_ASC_NODE = 207.6179
ARG_OF_PERICENTER = 287.5223
MEAN_ANOMALY   = 72.5444

EPHEMERIS_TYPE = 0
CLASSIFICATION_TYPE = U
NORAD_CAT_ID   = 17295
ELEMENT_SET_NO = 999
REV_AT_EPOCH   = 14279
BSTAR          = .83573E-3
MEAN_MOTION_DOT = .922098E-2
MEAN_MOTION_DDOT = .51707E-3

CCSDS_OMM_VERS = 2.0
CREATION_DATE  = 
ORIGINATOR     = 

OBJECT_NAME    = SL-14 R/B
OBJECT_ID      = 1987-024B
CENTER_NAME    = EARTH
REF_FRAME      = TEME
TIME_SYSTEM    = UTC
MEAN_ELEMENT_THEORY = SGP/SGP4

EPOCH          = 2026-02-27T03:14:33.162720
MEAN_MOTION    = 14.86120528
ECCENTRICITY   = .0016796
INCLINATION    = 82.5260
RA_OF_ASC_NODE = 102.6860
ARG_OF_PERICENTER = 298.0647
MEAN_ANOMALY   = 61.8870

EPHEMERIS_TYPE = 0
CLASSIFICATION_TYPE = U
NORAD_CAT_ID   = 17567
ELEMENT_SET_NO = 999
REV_AT_EPOCH   = 8656
BSTAR          = .46236E-4
MEAN_MOTION_DOT = .43E-5
MEAN_MOTION_DDOT = 0

CCSDS_OMM_VERS = 2.0
CREATION_DATE  = 
ORIGINATOR     = 

OBJECT_NAME    = COSMOS 1833
OBJECT_ID      = 1987-027A
CENTER_NAME    = EARTH
REF_FRAME      = TEME
TIME_SYSTEM    = UTC
MEAN_ELEMENT_THEORY = SGP/SGP4

EPOCH          = 2026-02-27T04:06:18.757152
MEAN_MOTION    = 14.13056721
ECCENTRICITY   = .0024694
INCLINATION    = 70.9234
RA_OF_ASC_NODE = 348.1241
ARG_OF_PERICENTER = 228.9814
MEAN_ANOMALY   = 130.9172

EPHEMERIS_TYPE = 0
CLASSIFICATION_TYPE = U
NORAD_CAT_ID   = 17589
ELEMENT_SET_NO = 999
REV_AT_EPOCH   = 883
BSTAR          = -.37299E-4
MEAN_MOTION_DOT = -.118E-5
MEAN_MOTION_DDOT = 0

CCSDS_OMM_VERS = 2.0
CREATION_DATE  = 
ORIGINATOR     = 

OBJECT_NAME    = SL-16 R/B
OBJECT_ID      = 1987-027B
CENTER_NAME    = EARTH
REF_FRAME      = TEME
TIME_SYSTEM    = UTC
MEAN_ELEMENT_THEORY = SGP/SGP4

EPOCH          = 2026-02-27T02:30:38.726496
MEAN_MOTION    = 14.17167219
ECCENTRICITY   = .0003952
INCLINATION    = 71.0028
RA_OF_ASC_NODE = 298.8017
ARG_OF_PERICENTER = 163.7618
MEAN_ANOMALY   = 196.3633

EPHEMERIS_TYPE = 0
CLASSIFICATION_TYPE = U
NORAD_CAT_ID   = 17590
ELEMENT_SET_NO = 999
REV_AT_EPOCH   = 1384
BSTAR          = -.15031E-4
MEAN_MOTION_DOT = -.78E-6
MEAN_MOTION_DDOT = 0

CCSDS_OMM_VERS = 2.0
CREATION_DATE  = 
ORIGINATOR     = 

OBJECT_NAME    = SL-14 R/B
OBJECT_ID      = 1987-038B
CENTER_NAME    = EARTH
REF_FRAME      = TEME
TIME_SYSTEM    = UTC
MEAN_ELEMENT_THEORY = SGP/SGP4

EPOCH          = 2026-02-27T02:59:29.201856
MEAN_MOTION    = 14.85358217
ECCENTRICITY   = .0018744
INCLINATION    = 82.5021
RA_OF_ASC_NODE = 306.7601
ARG_OF_PERICENTER = 195.1504
MEAN_ANOMALY   = 164.9153

EPHEMERIS_TYPE = 0
CLASSIFICATION_TYPE = U
NORAD_CAT_ID   = 17912
ELEMENT_SET_NO = 999
REV_AT_EPOCH   = 7766
BSTAR          = .4667E-4
MEAN_MOTION_DOT = .427E-5
MEAN_MOTION_DDOT = 0

CCSDS_OMM_VERS = 2.0
CREATION_DATE  = 
ORIGINATOR     = 

OBJECT_NAME    = COSMOS 1844
OBJECT_ID      = 1987-041A
CENTER_NAME    = EARTH
REF_FRAME      = TEME
TIME_SYSTEM    = UTC
MEAN_ELEMENT_THEORY = SGP/SGP4

EPOCH          = 2026-02-27T03:31:12.484128
MEAN_MOTION    = 14.14552936
ECCENTRICITY   = .0029458
INCLINATION    = 70.8989
RA_OF_ASC_NODE = 56.4133
ARG_OF_PERICENTER = 34.0891
MEAN_ANOMALY   = 326.2115

EPHEMERIS_TYPE = 0
CLASSIFICATION_TYPE = U
NORAD_CAT_ID   = 17973
ELEMENT_SET_NO = 999
REV_AT_EPOCH   = 209
BSTAR          = .24354E-4
MEAN_MOTION_DOT = -.1E-7
MEAN_MOTION_DDOT = 0

CCSDS_OMM_VERS = 2.0
CREATION_DATE  = 
ORIGINATOR     = 

OBJECT_NAME    = SL-14 R/B
OBJECT_ID      = 1987-055B
CENTER_NAME    = EARTH
REF_FRAME      = TEME
TIME_SYSTEM    = UTC
MEAN_ELEMENT_THEORY = SGP/SGP4

EPOCH          = 2026-02-26T07:05:05.720640
MEAN_MOTION    = 14.85612896
ECCENTRICITY   = .0021988
INCLINATION    = 82.5022
RA_OF_ASC_NODE = 359.7671
ARG_OF_PERICENTER = 53.8707
MEAN_ANOMALY   = 306.4540

EPHEMERIS_TYPE = 0
CLASSIFICATION_TYPE = U
NORAD_CAT_ID   = 18153
ELEMENT_SET_NO = 999
REV_AT_EPOCH   = 6824
BSTAR          = .626E-4
MEAN_MOTION_DOT = .568E-5
MEAN_MOTION_DDOT = 0

CCSDS_OMM_VERS = 2.0
CREATION_DATE  = 
ORIGINATOR     = 

OBJECT_NAME    = COSMOS 1867
OBJECT_ID      = 1987-060A
CENTER_NAME    = EARTH
REF_FRAME      = TEME
TIME_SYSTEM    = UTC
MEAN_ELEMENT_THEORY = SGP/SGP4

EPOCH          = 2026-02-27T04:07:07.598208
MEAN_MOTION    = 14.31501124
ECCENTRICITY   = .0014321
INCLINATION    = 65.0124
RA_OF_ASC_NODE = 336.1601
ARG_OF_PERICENTER = 277.9763
MEAN_ANOMALY   = 81.9696

EPHEMERIS_TYPE = 0
CLASSIFICATION_TYPE = U
NORAD_CAT_ID   = 18187
ELEMENT_SET_NO = 999
REV_AT_EPOCH   = 1843
BSTAR          = .26718E-4
MEAN_MOTION_DOT = -.29E-6
MEAN_MOTION_DDOT = 0

CCSDS_OMM_VERS = 2.0
CREATION_DATE  = 
ORIGINATOR     = 

OBJECT_NAME    = SL-14 R/B
OBJECT_ID      = 1988-001B
CENTER_NAME    = EARTH
REF_FRAME      = TEME
TIME_SYSTEM    = UTC
MEAN_ELEMENT_THEORY = SGP/SGP4

EPOCH          = 2026-02-26T11:48:09.282240
MEAN_MOTION    = 14.85511371
ECCENTRICITY   = .0016595
INCLINATION    = 82.5133
RA_OF_ASC_NODE = 205.8905
ARG_OF_PERICENTER = 275.9511
MEAN_ANOMALY   = 83.9813

EPHEMERIS_TYPE = 0
CLASSIFICATION_TYPE = U
NORAD_CAT_ID   = 18749
ELEMENT_SET_NO = 999
REV_AT_EPOCH   = 4036
BSTAR          = .6211E-4
MEAN_MOTION_DOT = .561E-5
MEAN_MOTION_DDOT = 0

