SL-14 R/B               
1 16792U 86046B   26058.09783748  .00000452  00000+0  49344-4 0  9994
2 16792  82.4787  90.1928 0021545 262.5384  97.3384 14.85578294124834
SL-14 R/B               
1 16882U 86055B   26058.15397100  .00000469  00000+0  51254-4 0  9995
2 16882  82.5221 136.5756 0019110  11.8474  11.1144 14.85631168117809
AJISAI (EGS)            
1 16908U 86061A   26058.18788259 -.00000107  00000+0 -66319-4 0  9992
2 16908  50.0083 125.6418 0011245 259.9786 136.1736 12.44515451466698
COSMOS 1812             
1 17295U 87003A   26058.22611323  .00922098  51707-3  83573-3 0  9995
2 17295  82.4736 207.6179 0005643 287.5223  72.5444 16.12709895142792
SL-14 R/B               
1 17567U 87024B   26058.13510605  .00000430  00000+0  46236-4 0  9990
2 17567  82.5260 102.6860 0016796 298.0647  61.8870 14.86120528 86561
COSMOS 1833             
1 17589U 87027A   26058.17105043 -.00000118  00000+0 -37299-4 0  9991
2 17589  70.9234 348.1241 0024694 228.9814 130.9172 14.13056721  8831
SL-16 R/B               
1 17590U 87027B   26058.10461489 -.00000078  00000+0 -15031-4 0  9990
2 17590  71.0028 298.8017 0003952 163.7618 196.3633 14.17167219 13844
SL-14 R/B               
1 17912U 87038B   26058.12464354  .00000427  00000+0  46670-4 0  9995
2 17912  82.5021 306.7601 0018744 195.1504 164.9153 14.85358217 77661
COSMOS 1844             
1 17973U 87041A   26058.14667227 -.00000001  00000+0  24354-4 0  9996
2 17973  70.8989  56.4133 0029458  34.0891 326.2115 14.14552936  2096
SL-14 R/B               
1 18153U 87055B   26057.29520510  .00000568  00000+0  62600-4 0  9993
2 18153  82.5022 359.7671 0021988  53.8707 306.4540 14.85612896 68247
COSMOS 1867             
1 18187U 87060A   26058.17161572 -.00000029  00000+0  26718-4 0  9996
2 18187  65.0124 336.1601 0014321 277.9763  81.9696 14.31501124 18434
SL-14 R/B               
1 18749U 88001B   26057.49177410  .00000561  00000+0  62110-4 0  9994
2 18749  82.5133 205.8905 0016595 275.9511  83.9813 14.85511371 40369
